[Satellite]
VERSION=1.1
NAME=IRIDIUM 129 [+]
NICKNAME=IRIDIUM 129 [+]
TLE1=1 42958U 17061D   20157.91511753  .00000078  00000-0  20750-4 0  9993
TLE2=2 42958  86.4008 225.5215 0002670  87.0012 273.1489 14.34219924139142
STATUS=0
